{
  "type": "FeatureCollection",
  "features": [
    {
      "type": "Feature",
      "properties": {
        "norad_id": 28899,
        "name": "INMARSAT 4-F2 (SOUTHPAN/PRN 122)",
        "group": "gnss",
        "lat": 0.5544768191005152,
        "lon": 50.14327639087378,
        "alt_km": 35793.88945831173,
        "timestamp": "2025-12-26T11:25:45.440539+00:00",
        "meta_object_name": "INMARSAT 4-F2 (SOUTHPAN/PRN 122)",
        "meta_object_id": "2005-044A",
        "meta_epoch": "2025-12-25T11:49:38.683776",
        "meta_mean_motion": 1.00270481,
        "meta_eccentricity": 0.0002477,
        "meta_inclination": 4.8675,
        "meta_ra_of_asc_node": 43.7139,
        "meta_arg_of_pericenter": 231.4406,
        "meta_mean_anomaly": 140.0074,
        "meta_ephemeris_type": 0,
        "meta_classification_type": "U",
        "meta_norad_cat_id": 28899,
        "meta_element_set_no": 999,
        "meta_rev_at_epoch": 7378,
        "meta_bstar": 0,
        "meta_mean_motion_dot": -2.41e-06,
        "meta_mean_motion_ddot": 0,
        "tle_line1": "1 28899U 05044A   25359.49280884 -.00000241  00000+0  00000+0 0  9992",
        "tle_line2": "2 28899   4.8675  43.7139 0002477 231.4406 140.0074  1.00270481 73789"
      },
      "geometry": {
        "type": "Point",
        "coordinates": [
          50.14327639087378,
          0.5544768191005152
        ]
      }
    },
    {
      "type": "Feature",
      "properties": {
        "norad_id": 29486,
        "name": "GPS BIIRM-2 (PRN 31)",
        "group": "gnss",
        "lat": -7.148061984086998,
        "lon": 153.08926588380334,
        "alt_km": 20044.02618811138,
        "timestamp": "2025-12-26T11:25:45.440553+00:00",
        "meta_object_name": "GPS BIIRM-2 (PRN 31)",
        "meta_object_id": "2006-042A",
        "meta_epoch": "2025-12-26T03:59:02.302368",
        "meta_mean_motion": 2.00553574,
        "meta_eccentricity": 0.0107264,
        "meta_inclination": 54.6956,
        "meta_ra_of_asc_node": 158.2081,
        "meta_arg_of_pericenter": 52.2605,
        "meta_mean_anomaly": 76.0437,
        "meta_ephemeris_type": 0,
        "meta_classification_type": "U",
        "meta_norad_cat_id": 29486,
        "meta_element_set_no": 999,
        "meta_rev_at_epoch": 14092,
        "meta_bstar": 0,
        "meta_mean_motion_dot": 1.06e-06,
        "meta_mean_motion_ddot": 0,
        "tle_line1": "1 29486U 06042A   25360.16599887  .00000106  00000+0  00000+0 0  9995",
        "tle_line2": "2 29486  54.6956 158.2081 0107264  52.2605  76.0437  2.00553574140925"
      },
      "geometry": {
        "type": "Point",
        "coordinates": [
          153.08926588380334,
          -7.148061984086998
        ]
      }
    },
    {
      "type": "Feature",
      "properties": {
        "norad_id": 29601,
        "name": "GPS BIIRM-3 (PRN 12)",
        "group": "gnss",
        "lat": 39.01782402335974,
        "lon": -104.50336265860719,
        "alt_km": 19989.876481869673,
        "timestamp": "2025-12-26T11:25:45.440565+00:00",
        "meta_object_name": "GPS BIIRM-3 (PRN 12)",
        "meta_object_id": "2006-052A",
        "meta_epoch": "2025-12-25T21:48:25.792704",
        "meta_mean_motion": 2.00574428,
        "meta_eccentricity": 0.008799,
        "meta_inclination": 54.968,
        "meta_ra_of_asc_node": 220.8754,
        "meta_arg_of_pericenter": 87.5984,
        "meta_mean_anomaly": 273.4866,
        "meta_ephemeris_type": 0,
        "meta_classification_type": "U",
        "meta_norad_cat_id": 29601,
        "meta_element_set_no": 999,
        "meta_rev_at_epoch": 13993,
        "meta_bstar": 0,
        "meta_mean_motion_dot": 7.2e-07,
        "meta_mean_motion_ddot": 0,
        "tle_line1": "1 29601U 06052A   25359.90863186  .00000072  00000+0  00000+0 0  9993",
        "tle_line2": "2 29601  54.9680 220.8754 0087990  87.5984 273.4866  2.00574428139937"
      },
      "geometry": {
        "type": "Point",
        "coordinates": [
          -104.50336265860719,
          39.01782402335974
        ]
      }
    },
    {
      "type": "Feature",
      "properties": {
        "norad_id": 32260,
        "name": "GPS BIIRM-4 (PRN 15)",
        "group": "gnss",
        "lat": -9.907290512758845,
        "lon": -85.50589904424608,
        "alt_km": 20303.41874321892,
        "timestamp": "2025-12-26T11:25:45.440577+00:00",
        "meta_object_name": "GPS BIIRM-4 (PRN 15)",
        "meta_object_id": "2007-047A",
        "meta_epoch": "2025-12-23T05:22:00.882048",
        "meta_mean_motion": 2.00564099,
        "meta_eccentricity": 0.01640403,
        "meta_inclination": 53.9621,
        "meta_ra_of_asc_node": 87.3254,
        "meta_arg_of_pericenter": 85.3777,
        "meta_mean_anomaly": 276.5133,
        "meta_ephemeris_type": 0,
        "meta_classification_type": "U",
        "meta_norad_cat_id": 32260,
        "meta_element_set_no": 999,
        "meta_rev_at_epoch": 13328,
        "meta_bstar": 0,
        "meta_mean_motion_dot": -6e-08,
        "meta_mean_motion_ddot": 0,
        "tle_line1": "1 32260U 07047A   25357.22362132 -.00000006  00000+0  00000+0 0  9999",
        "tle_line2": "2 32260  53.9621  87.3254 0164040  85.3777 276.5133  2.00564099133281"
      },
      "geometry": {
        "type": "Point",
        "coordinates": [
          -85.50589904424608,
          -9.907290512758845
        ]
      }
    },
    {
      "type": "Feature",
      "properties": {
        "norad_id": 32275,
        "name": "COSMOS 2433 (720)",
        "group": "gnss",
        "lat": -9.014533790592777,
        "lon": 145.84329945329202,
        "alt_km": 19126.458263426117,
        "timestamp": "2025-12-26T11:25:45.440589+00:00",
        "meta_object_name": "COSMOS 2433 (720)",
        "meta_object_id": "2007-052A",
        "meta_epoch": "2025-12-26T05:29:12.768864",
        "meta_mean_motion": 2.1310417,
        "meta_eccentricity": 0.0005094,
        "meta_inclination": 65.676,
        "meta_ra_of_asc_node": 321.7529,
        "meta_arg_of_pericenter": 257.2732,
        "meta_mean_anomaly": 102.6736,
        "meta_ephemeris_type": 0,
        "meta_classification_type": "U",
        "meta_norad_cat_id": 32275,
        "meta_element_set_no": 999,
        "meta_rev_at_epoch": 14137,
        "meta_bstar": 0,
        "meta_mean_motion_dot": -3.3e-07,
        "meta_mean_motion_ddot": 0,
        "tle_line1": "1 32275U 07052A   25360.22862001 -.00000033  00000+0  00000+0 0  9995",
        "tle_line2": "2 32275  65.6760 321.7529 0005094 257.2732 102.6736  2.13104170141376"
      },
      "geometry": {
        "type": "Point",
        "coordinates": [
          145.84329945329202,
          -9.014533790592777
        ]
      }
    },
    {
      "type": "Feature",
      "properties": {
        "norad_id": 32276,
        "name": "COSMOS 2432 (719)",
        "group": "gnss",
        "lat": 40.649781999078925,
        "lon": 119.03648678400461,
        "alt_km": 19154.17789947893,
        "timestamp": "2025-12-26T11:25:45.440601+00:00",
        "meta_object_name": "COSMOS 2432 (719)",
        "meta_object_id": "2007-052B",
        "meta_epoch": "2025-12-24T04:32:38.772960",
        "meta_mean_motion": 2.13103387,
        "meta_eccentricity": 0.00113791,
        "meta_inclination": 65.6931,
        "meta_ra_of_asc_node": 321.9458,
        "meta_arg_of_pericenter": 314.7871,
        "meta_mean_anomaly": 225.1187,
        "meta_ephemeris_type": 0,
        "meta_classification_type": "U",
        "meta_norad_cat_id": 32276,
        "meta_element_set_no": 999,
        "meta_rev_at_epoch": 14135,
        "meta_bstar": 0,
        "meta_mean_motion_dot": -3.3e-07,
        "meta_mean_motion_ddot": 0,
        "tle_line1": "1 32276U 07052B   25358.18933765 -.00000033  00000+0  00000+0 0  9994",
        "tle_line2": "2 32276  65.6931 321.9458 0011379 314.7871 225.1187  2.13103387141354"
      },
      "geometry": {
        "type": "Point",
        "coordinates": [
          119.03648678400461,
          40.649781999078925
        ]
      }
    },
    {
      "type": "Feature",
      "properties": {
        "norad_id": 32384,
        "name": "GPS BIIRM-5 (PRN 29)",
        "group": "gnss",
        "lat": -32.13995270562278,
        "lon": -104.81474277879632,
        "alt_km": 20264.563529946794,
        "timestamp": "2025-12-26T11:25:45.440612+00:00",
        "meta_object_name": "GPS BIIRM-5 (PRN 29)",
        "meta_object_id": "2007-062A",
        "meta_epoch": "2025-12-26T03:33:23.388768",
        "meta_mean_motion": 2.00549335,
        "meta_eccentricity": 0.0031409,
        "meta_inclination": 55.1706,
        "meta_ra_of_asc_node": 281.1081,
        "meta_arg_of_pericenter": 162.2619,
        "meta_mean_anomaly": 280.4053,
        "meta_ephemeris_type": 0,
        "meta_classification_type": "U",
        "meta_norad_cat_id": 32384,
        "meta_element_set_no": 999,
        "meta_rev_at_epoch": 13204,
        "meta_bstar": 0,
        "meta_mean_motion_dot": -2.8e-07,
        "meta_mean_motion_ddot": 0,
        "tle_line1": "1 32384U 07062A   25360.14818737 -.00000028  00000+0  00000+0 0  9999",
        "tle_line2": "2 32384  55.1706 281.1081 0031409 162.2619 280.4053  2.00549335132044"
      },
      "geometry": {
        "type": "Point",
        "coordinates": [
          -104.81474277879632,
          -32.13995270562278
        ]
      }
    }
  ]
}